INTELSAT 33E DEB        
1 61998U 16053Q   26115.68932525 -.00000133  00000+0  00000+0 0  9999
2 61998   1.4247  83.7395 0027094 295.4642  64.5673  1.00392848  5575
INTELSAT 33E DEB        
1 62003U 16053V   26115.62022552  .00000089  00000+0  00000+0 0  9990
2 62003   1.4898  88.8147 0023027 262.1959  97.8968  1.00417210  5555
OPTUS-X (ADS-01)        
1 62006U 24212A   26116.45367183 -.00000156  00000+0  00000+0 0  9999
2 62006   0.0140 265.1349 0001321 166.0871 102.9668  1.00270655  5246
GSAT-N2 (GSAT-20)       
1 62028U 24214A   26116.50749990 -.00000032  00000+0  00000+0 0  9994
2 62028   0.0605  83.7872 0001267  28.2239 353.2179  1.00269454  5385
SXM-9                   
1 62259U 24234A   26116.47716644 -.00000218  00000+0  00000+0 0  9994
2 62259   0.0146 307.4153 0004867   4.0618 349.6237  1.00272275  5054
TJS-12                  
1 62374U 24246A   26116.55754462 -.00000246  00000+0  00000+0 0  9995
2 62374   0.7858 294.9467 0002183  52.7100 214.0810  1.00268413  5042
NUVIEW ALPHA            
1 62455U 24252B   26116.47751309 -.00000228  00000+0  00000+0 0  9990
2 62455   0.0660  47.5705 0001649 349.6503 266.0513  1.00272454  3308
AGILA                   
1 62456U 24252C   26116.45280515 -.00000194  00000+0  00000+0 0  9997
2 62456   0.0528 104.5925 0001187 307.9931 117.0256  1.00271705  4644
NUVIEW BRAVO            
1 62457U 24252D   26116.40625529 -.00000227  00000+0  00000+0 0  9998
2 62457   0.0693 154.1061 0001176 308.4163 175.0172  1.00271682  3274
THURAYA-4               
1 62483U 25001A   26116.14623368  .00000126  00000+0  00000+0 0  9997
2 62483   0.0404  78.3423 0000084 214.9472  17.7741  1.00274501  3652
TJS-14                  
1 62804U 25017A   26116.28377425  .00000101  00000+0  00000+0 0  9999
2 62804   0.9017 292.5116 0000876  69.6000 332.6824  1.00272749  4753
SPAINSAT NG I           
1 62852U 25021A   26114.64587427  .00000137  00000+0  00000+0 0  9999
2 62852   0.0187 256.5608 0000496  44.0999 173.5175  1.00273459  3459
QZS-6 (MICHIBIKI-6)     
1 62876U 25023A   26116.51191992  .00000000  00000+0  00000+0 0  9992
2 62876   0.0129  73.8694 0002688 331.1293  84.2857  1.00271607  4446
ZHONGXING-10R           
1 63075U 25036A   26116.51742328 -.00000364  00000+0  00000+0 0  9997
2 63075   0.0140 230.5508 0001339 251.4253  29.3331  1.00270604  4442
TJS-15                  
1 63157U 25045A   26115.51449230 -.00000278  00000+0  00000+0 0  9997
2 63157   0.2773  84.5285 0006857 283.5809 124.9499  1.00270282  4235
TIANLIAN 2-04           
1 63361U 25062A   26115.58287262 -.00000157  00000+0  00000+0 0  9991
2 63361   4.5089 275.1854 0033121  11.3401 216.9447  1.00271212  4079
TJS-16                  
1 63397U 25064A   26115.75338463 -.00000119  00000+0  00000+0 0  9999
2 63397   0.9646  81.6274 0004626 277.0468 286.8701  1.00270972  3862
