[{"OBJECT_NAME":"INTELSAT 33E DEB","OBJECT_ID":"2016-053Q","EPOCH":"2026-04-25T16:32:37.701600","MEAN_MOTION":1.00392848,"ECCENTRICITY":0.00270943,"INCLINATION":1.4247,"RA_OF_ASC_NODE":83.7395,"ARG_OF_PERICENTER":295.4642,"MEAN_ANOMALY":64.5673,"EPHEMERIS_TYPE":0,"CLASSIFICATION_TYPE":"U","NORAD_CAT_ID":61998,"ELEMENT_SET_NO":999,"REV_AT_EPOCH":557,"BSTAR":0,"MEAN_MOTION_DOT":-1.33e-6,"MEAN_MOTION_DDOT":0},{"OBJECT_NAME":"INTELSAT 33E DEB","OBJECT_ID":"2016-053V","EPOCH":"2026-04-25T14:53:07.484928","MEAN_MOTION":1.0041721,"ECCENTRICITY":0.0023027,"INCLINATION":1.4898,"RA_OF_ASC_NODE":88.8147,"ARG_OF_PERICENTER":262.1959,"MEAN_ANOMALY":97.8968,"EPHEMERIS_TYPE":0,"CLASSIFICATION_TYPE":"U","NORAD_CAT_ID":62003,"ELEMENT_SET_NO":999,"REV_AT_EPOCH":555,"BSTAR":0,"MEAN_MOTION_DOT":8.9e-7,"MEAN_MOTION_DDOT":0},{"OBJECT_NAME":"OPTUS-X (ADS-01)","OBJECT_ID":"2024-212A","EPOCH":"2026-04-26T10:53:17.246112","MEAN_MOTION":1.00270655,"ECCENTRICITY":0.0001321,"INCLINATION":0.014,"RA_OF_ASC_NODE":265.1349,"ARG_OF_PERICENTER":166.0871,"MEAN_ANOMALY":102.9668,"EPHEMERIS_TYPE":0,"CLASSIFICATION_TYPE":"U","NORAD_CAT_ID":62006,"ELEMENT_SET_NO":999,"REV_AT_EPOCH":524,"BSTAR":0,"MEAN_MOTION_DOT":-1.56e-6,"MEAN_MOTION_DDOT":0},{"OBJECT_NAME":"GSAT-N2 (GSAT-20)","OBJECT_ID":"2024-214A","EPOCH":"2026-04-26T12:10:47.991360","MEAN_MOTION":1.00269454,"ECCENTRICITY":0.0001267,"INCLINATION":0.0605,"RA_OF_ASC_NODE":83.7872,"ARG_OF_PERICENTER":28.2239,"MEAN_ANOMALY":353.2179,"EPHEMERIS_TYPE":0,"CLASSIFICATION_TYPE":"U","NORAD_CAT_ID":62028,"ELEMENT_SET_NO":999,"REV_AT_EPOCH":538,"BSTAR":0,"MEAN_MOTION_DOT":-3.2e-7,"MEAN_MOTION_DDOT":0},{"OBJECT_NAME":"SXM-9","OBJECT_ID":"2024-234A","EPOCH":"2026-04-26T11:27:07.180416","MEAN_MOTION":1.00272275,"ECCENTRICITY":0.0004867,"INCLINATION":0.0146,"RA_OF_ASC_NODE":307.4153,"ARG_OF_PERICENTER":4.0618,"MEAN_ANOMALY":349.6237,"EPHEMERIS_TYPE":0,"CLASSIFICATION_TYPE":"U","NORAD_CAT_ID":62259,"ELEMENT_SET_NO":999,"REV_AT_EPOCH":505,"BSTAR":0,"MEAN_MOTION_DOT":-2.18e-6,"MEAN_MOTION_DDOT":0},{"OBJECT_NAME":"TJS-12","OBJECT_ID":"2024-246A","EPOCH":"2026-04-26T13:22:51.855168","MEAN_MOTION":1.00268413,"ECCENTRICITY":0.0002183,"INCLINATION":0.7858,"RA_OF_ASC_NODE":294.9467,"ARG_OF_PERICENTER":52.71,"MEAN_ANOMALY":214.081,"EPHEMERIS_TYPE":0,"CLASSIFICATION_TYPE":"U","NORAD_CAT_ID":62374,"ELEMENT_SET_NO":999,"REV_AT_EPOCH":504,"BSTAR":0,"MEAN_MOTION_DOT":-2.46e-6,"MEAN_MOTION_DDOT":0},{"OBJECT_NAME":"NUVIEW ALPHA","OBJECT_ID":"2024-252B","EPOCH":"2026-04-26T11:27:37.130976","MEAN_MOTION":1.00272454,"ECCENTRICITY":0.0001649,"INCLINATION":0.066,"RA_OF_ASC_NODE":47.5705,"ARG_OF_PERICENTER":349.6503,"MEAN_ANOMALY":266.0513,"EPHEMERIS_TYPE":0,"CLASSIFICATION_TYPE":"U","NORAD_CAT_ID":62455,"ELEMENT_SET_NO":999,"REV_AT_EPOCH":330,"BSTAR":0,"MEAN_MOTION_DOT":-2.28e-6,"MEAN_MOTION_DDOT":0},{"OBJECT_NAME":"AGILA","OBJECT_ID":"2024-252C","EPOCH":"2026-04-26T10:52:02.364960","MEAN_MOTION":1.00271705,"ECCENTRICITY":0.0001187,"INCLINATION":0.0528,"RA_OF_ASC_NODE":104.5925,"ARG_OF_PERICENTER":307.9931,"MEAN_ANOMALY":117.0256,"EPHEMERIS_TYPE":0,"CLASSIFICATION_TYPE":"U","NORAD_CAT_ID":62456,"ELEMENT_SET_NO":999,"REV_AT_EPOCH":464,"BSTAR":0,"MEAN_MOTION_DOT":-1.94e-6,"MEAN_MOTION_DDOT":0},{"OBJECT_NAME":"NUVIEW BRAVO","OBJECT_ID":"2024-252D","EPOCH":"2026-04-26T09:45:00.457056","MEAN_MOTION":1.00271682,"ECCENTRICITY":0.0001176,"INCLINATION":0.0693,"RA_OF_ASC_NODE":154.1061,"ARG_OF_PERICENTER":308.4163,"MEAN_ANOMALY":175.0172,"EPHEMERIS_TYPE":0,"CLASSIFICATION_TYPE":"U","NORAD_CAT_ID":62457,"ELEMENT_SET_NO":999,"REV_AT_EPOCH":327,"BSTAR":0,"MEAN_MOTION_DOT":-2.27e-6,"MEAN_MOTION_DDOT":0},{"OBJECT_NAME":"THURAYA-4","OBJECT_ID":"2025-001A","EPOCH":"2026-04-26T03:30:34.589952","MEAN_MOTION":1.00274501,"ECCENTRICITY":8.4e-6,"INCLINATION":0.0404,"RA_OF_ASC_NODE":78.3423,"ARG_OF_PERICENTER":214.9472,"MEAN_ANOMALY":17.7741,"EPHEMERIS_TYPE":0,"CLASSIFICATION_TYPE":"U","NORAD_CAT_ID":62483,"ELEMENT_SET_NO":999,"REV_AT_EPOCH":365,"BSTAR":0,"MEAN_MOTION_DOT":1.26e-6,"MEAN_MOTION_DDOT":0},{"OBJECT_NAME":"TJS-14","OBJECT_ID":"2025-017A","EPOCH":"2026-04-26T06:48:38.095200","MEAN_MOTION":1.00272749,"ECCENTRICITY":8.76e-5,"INCLINATION":0.9017,"RA_OF_ASC_NODE":292.5116,"ARG_OF_PERICENTER":69.6,"MEAN_ANOMALY":332.6824,"EPHEMERIS_TYPE":0,"CLASSIFICATION_TYPE":"U","NORAD_CAT_ID":62804,"ELEMENT_SET_NO":999,"REV_AT_EPOCH":475,"BSTAR":0,"MEAN_MOTION_DOT":1.01e-6,"MEAN_MOTION_DDOT":0},{"OBJECT_NAME":"SPAINSAT NG I","OBJECT_ID":"2025-021A","EPOCH":"2026-04-24T15:30:03.536928","MEAN_MOTION":1.00273459,"ECCENTRICITY":4.965e-5,"INCLINATION":0.0187,"RA_OF_ASC_NODE":256.5608,"ARG_OF_PERICENTER":44.0999,"MEAN_ANOMALY":173.5175,"EPHEMERIS_TYPE":0,"CLASSIFICATION_TYPE":"U","NORAD_CAT_ID":62852,"ELEMENT_SET_NO":999,"REV_AT_EPOCH":345,"BSTAR":0,"MEAN_MOTION_DOT":1.37e-6,"MEAN_MOTION_DDOT":0},{"OBJECT_NAME":"QZS-6 (MICHIBIKI-6)","OBJECT_ID":"2025-023A","EPOCH":"2026-04-26T12:17:09.881088","MEAN_MOTION":1.00271607,"ECCENTRICITY":0.0002688,"INCLINATION":0.0129,"RA_OF_ASC_NODE":73.8694,"ARG_OF_PERICENTER":331.1293,"MEAN_ANOMALY":84.2857,"EPHEMERIS_TYPE":0,"CLASSIFICATION_TYPE":"U","NORAD_CAT_ID":62876,"ELEMENT_SET_NO":999,"REV_AT_EPOCH":444,"BSTAR":0,"MEAN_MOTION_DOT":0,"MEAN_MOTION_DDOT":0},{"OBJECT_NAME":"ZHONGXING-10R","OBJECT_ID":"2025-036A","EPOCH":"2026-04-26T12:25:05.371392","MEAN_MOTION":1.00270604,"ECCENTRICITY":0.0001339,"INCLINATION":0.014,"RA_OF_ASC_NODE":230.5508,"ARG_OF_PERICENTER":251.4253,"MEAN_ANOMALY":29.3331,"EPHEMERIS_TYPE":0,"CLASSIFICATION_TYPE":"U","NORAD_CAT_ID":63075,"ELEMENT_SET_NO":999,"REV_AT_EPOCH":444,"BSTAR":0,"MEAN_MOTION_DOT":-3.64e-6,"MEAN_MOTION_DDOT":0},{"OBJECT_NAME":"TJS-15","OBJECT_ID":"2025-045A","EPOCH":"2026-04-25T12:20:52.134720","MEAN_MOTION":1.00270282,"ECCENTRICITY":0.0006857,"INCLINATION":0.2773,"RA_OF_ASC_NODE":84.5285,"ARG_OF_PERICENTER":283.5809,"MEAN_ANOMALY":124.9499,"EPHEMERIS_TYPE":0,"CLASSIFICATION_TYPE":"U","NORAD_CAT_ID":63157,"ELEMENT_SET_NO":999,"REV_AT_EPOCH":423,"BSTAR":0,"MEAN_MOTION_DOT":-2.78e-6,"MEAN_MOTION_DDOT":0},{"OBJECT_NAME":"TIANLIAN 2-04","OBJECT_ID":"2025-062A","EPOCH":"2026-04-25T13:59:20.194368","MEAN_MOTION":1.00271212,"ECCENTRICITY":0.00331217,"INCLINATION":4.5089,"RA_OF_ASC_NODE":275.1854,"ARG_OF_PERICENTER":11.3401,"MEAN_ANOMALY":216.9447,"EPHEMERIS_TYPE":0,"CLASSIFICATION_TYPE":"U","NORAD_CAT_ID":63361,"ELEMENT_SET_NO":999,"REV_AT_EPOCH":407,"BSTAR":0,"MEAN_MOTION_DOT":-1.57e-6,"MEAN_MOTION_DDOT":0},{"OBJECT_NAME":"TJS-16","OBJECT_ID":"2025-064A","EPOCH":"2026-04-25T18:04:52.432032","MEAN_MOTION":1.00270972,"ECCENTRICITY":0.0004626,"INCLINATION":0.9646,"RA_OF_ASC_NODE":81.6274,"ARG_OF_PERICENTER":277.0468,"MEAN_ANOMALY":286.8701,"EPHEMERIS_TYPE":0,"CLASSIFICATION_TYPE":"U","NORAD_CAT_ID":63397,"ELEMENT_SET_NO":999,"REV_AT_EPOCH":386,"BSTAR":0,"MEAN_MOTION_DOT":-1.19e-6,"MEAN_MOTION_DDOT":0}]
